{
    "links": {
        "self": "http://www.neowsapp.com/rest/v1/neo/3559784?api_key=iIulBulltgU6a56xZRHN4H3l9WmuAYTsLGpBGhQ2"
    },
    "id": "3559784",
    "neo_reference_id": "3559784",
    "name": "(2011 EE51)",
    "designation": "2011 EE51",
    "nasa_jpl_url": "http://ssd.jpl.nasa.gov/sbdb.cgi?sstr=3559784",
    "absolute_magnitude_h": 24.3,
    "estimated_diameter": {
        "kilometers": {
            "estimated_diameter_min": 0.0366906138,
            "estimated_diameter_max": 0.0820427065
        },
        "meters": {
            "estimated_diameter_min": 36.6906137531,
            "estimated_diameter_max": 82.0427064882
        },
        "miles": {
            "estimated_diameter_min": 0.0227984834,
            "estimated_diameter_max": 0.0509789586
        },
        "feet": {
            "estimated_diameter_min": 120.3760332259,
            "estimated_diameter_max": 269.1689931548
        }
    },
    "is_potentially_hazardous_asteroid": false,
    "close_approach_data": [
        {
            "close_approach_date": "2011-03-18",
            "close_approach_date_full": "2011-Mar-18 15:58",
            "epoch_date_close_approach": 1300463880000,
            "relative_velocity": {
                "kilometers_per_second": "18.5016177637",
                "kilometers_per_hour": "66605.8239491425",
                "miles_per_hour": "41386.2687755103"
            },
            "miss_distance": {
                "astronomical": "0.0606072261",
                "lunar": "23.5762109529",
                "kilometers": "9066711.931168407",
                "miles": "5633793.5515497366"
            },
            "orbiting_body": "Earth"
        }
    ],
    "orbital_data": {
        "orbit_id": "7",
        "orbit_determination_date": "2017-04-06 08:54:08",
        "first_observation_date": "2011-03-10",
        "last_observation_date": "2011-03-13",
        "data_arc_in_days": 3,
        "observations_used": 17,
        "orbit_uncertainty": "9",
        "minimum_orbit_intersection": ".0538475",
        "jupiter_tisserand_invariant": "4.156",
        "epoch_osculation": "2455631.5",
        "eccentricity": ".6180114837455124",
        "semi_major_axis": "1.57919427703197",
        "inclination": "6.502279268291881",
        "ascending_node_longitude": "148.0359438428489",
        "orbital_period": "724.8560516019226",
        "perihelion_distance": ".6032340787610205",
        "perihelion_argument": "120.5594388247539",
        "aphelion_distance": "2.55515447530292",
        "perihelion_time": "2455689.977205666153",
        "mean_anomaly": "330.9572762850074",
        "mean_motion": ".4966503338206319",
        "equinox": "J2000",
        "orbit_class": {
            "orbit_class_type": "APO",
            "orbit_class_description": "Near-Earth asteroid orbits which cross the Earth’s orbit similar to that of 1862 Apollo",
            "orbit_class_range": "a (semi-major axis) > 1.0 AU; q (perihelion) < 1.017 AU"
        }
    },
    "is_sentry_object": false
}